class,Object.Designation..,V11,Year.Range..,Potential.Impacts..,Impact.Probability,Vinfinity,H.x,Estimated.Diameter,Torino.Scale,Palermo.Scale.min,Palermo.Scale.max,Year.Min,Year.Max,H.y,diameter,albedo,rot_per,epoch,equinox,e,a,q,i,om,w,ma,ad,n,tp,per_y,moid,moid_jup,t_jup,first_obs,n_obs_used,E,theta,X,Y,Z,x,y,z,radius,round_dradius
AMO,2007 VE8,bK07V08E,2062-2062,1,2e-05,9.05,25.4,0.028,0,-4.96,-4.96,2062,2062,25.4,,,,2454412.5,J2000,0.58586192272675,2.50696981909042,1.03823166066018,7.21537857378938,44.0201234539788,351.706197486981,2.20620182457652,3.97570797752067,0.248302113092992,2454403.61484877,3.96946393685513,0.0477073,1.46297,3.192,2007-11-05,29,2.53849876190151,2.82634112366033,-3.53344020726828,1.15235274004724,0,-3.35329268793129,0.872045130470785,1.3446493875071,3.71660013128053,7
AMO,2008 VS4,bK08V04S,2017-2114,316,6.2e-07,9.43,24.2,0.049,0,-5.16,-5.5,2017,2114,24.407,,,,2454777.5,J2000,0.545617418077719,2.33668039794462,1.06174687234526,1.59536701985855,202.344725224277,198.338926482377,1.69831685779322,3.61161392354397,0.275933926465286,2454771.34520461,3.57196483953036,0.0698376,1.81885,3.35,2008-11-07,10,2.15380404436072,2.57353540952807,-2.56136323722367,1.63474151765546,0,0.842784372946435,2.88410480987748,-0.452344347711179,3.03857885573953,6
AMO,1999 RZ31,bJ99R31Z,2056-2056,2,1.6e-06,8.2,23.8,0.059,0,-5.23,-5.29,2056,2056,23.8,,,,2451433.5,J2000,0.601498549887576,2.58499527720077,1.03012436649827,2.96906311130379,163.313580228757,180.046041814984,1.41901701642343,4.13986618790326,0.237145256960266,2451427.51625386,4.15621335210891,0.0217991,1.28593,3.138,1999-09-07,44,1.972608488351,2.50404502702654,-2.56582847607982,1.90060903051094,0,2.95777415308695,-1.18927477991203,0.181626024340615,3.1930847867731,6
AMO,2006 CD,bK06C00D,2021-2113,48,2e-08,11.26,21,0.215,0,-5.31,-6.15,2021,2113,20.5,,,,2453768.5,J2000,0.437110929905101,1.89473108538821,1.06652341873407,9.02465585477912,105.229340010282,298.973125494886,28.2894157608711,2.72293875204235,0.377905056906329,2453693.64147338,2.60813203040007,0.145613,2.72409,3.818,2006-02-01,12,28.2848285229477,3.14816070068875,-2.72283441254444,-0.0178839618318525,0,-1.29713407768968,-2.33359445535516,0.534721587986523,2.72289314410739,5
AMO,2017 DC120,bK17DC0C,2021-2115,81,5.2e-08,10.55,22.3,0.12,0,-5.5,-5.87,2021,2115,22.195,,,,2457814.5,J2000,0.450962149784464,2.04809715044627,1.12448285651358,3.39597660406348,278.213704636161,199.647094721462,14.7223959639944,2.97171144437895,0.336262350112745,2457770.71753087,2.93112292540954,0.141764,2.15446,3.659,2017-02-28,8,15.0116427020524,2.70227433137226,-2.49492950413335,1.17248721381243,0,2.37886411103431,1.22342646130261,-0.666057604240239,2.75670083562739,6
AMO,2016 PM38,bK16P38M,2020-2020,1,7.6e-07,8.13,26,0.021,0,-5.53,-5.53,2020,2020,26,,,,2457609.5,J2000,0.583275866068196,2.44374783799397,1.01836870133576,2.10456942357267,279.497265974851,358.471874602776,8.76603062899107,3.86912697465218,0.257999870588743,2457575.52312005,3.82025882849634,0.00150474,1.28985,3.242,2016-08-08,15,9.0041838379704,-3.35974065941779,-3.65614584484504,0.810478396855229,0,3.67883371064151,-0.600203302191388,-0.360854812955035,3.74490022170774,7
AMO,2010 KJ37,bK10K37J,2024-2115,57,2.4e-07,6.62,23.9,0.055,0,-5.74,-5.99,2024,2115,24,,,,2455339.5,J2000,0.0709954913979326,1.11267106064248,1.03367643192791,11.1381307876083,236.381176563771,92.3330293404069,279.4637139122,1.19166568935705,0.839757487646885,2455435.4042191,1.17370347733298,0.0906228,3.89127,5.582,2010-05-23,20,279.472840321944,3.02151356277854,-1.18243401297114,0.142671989868179,0,-0.281300511007486,-0.4773949018276,-1.0542625962918,1.19101028195561,2
AMO,2008 LE,bK08L00E,2018-2116,122,2.3e-06,8.63,26,0.022,0,-5.85,-6.69,2018,2116,23.6,,,,2454619.5,J2000,0.268616805475512,1.44934950870228,1.06002987365717,1.94028372060408,201.191468343159,32.8092392805159,9.87585709728636,1.83866914374739,0.564864631266687,2454602.016418,1.74488935722056,0.0527098,3.15405,4.606,2008-06-02,12,9.78194331939198,-2.86917789491603,-1.74720306362907,-0.48809794333365,0,0.086267774474913,0.668937989812953,-1.68405403259916,1.81409981749664,4
AMO,2013 JA17,bK13J17A,2027-2092,2,7e-10,9.64,19.1,0.51,0,-5.96,-6.01,2027,2092,19.921,,,,2456422.5,J2000,0.327685332375139,1.90619959942012,1.28156595011078,3.33691349112994,65.6963233423455,309.405176875645,240.442047575007,2.53083324872946,0.374499733495038,2456741.74709614,2.63184775638997,0.285376,2.93474,3.871,2013-05-08,13,240.742489460145,2.26894961207768,-1.38560132260902,1.65122297158302,0,1.28932170768585,-1.70847492095508,0.255325881290694,2.15555754437206,4
AMO,2016 RP41,bK16R41P,2019-2114,49,1.7e-08,8.23,22.5,0.11,0,-6.01,-6.39,2019,2114,22.485,,,,2457644.5,J2000,0.331087785532836,1.92912975424057,1.29041845590356,4.27271650337712,318.626195555494,44.1068087201992,355.630051685477,2.56784105257759,0.367842507699437,2457656.37994379,2.6794790235959,0.292482,2.89268,3.843,2016-09-12,7,355.477799867607,3.48354742533579,-2.35176866016539,-0.837083303295416,0,1.00533024731147,2.04665476075094,1.01589353365807,2.49630212265905,5
AMO,2012 BG96,bK12B96G,2057-2057,1,5.1e-10,8.39,18.9,0.55,0,-6.4,-6.4,2057,2057,18.42,,,,2455955.5,J2000,0.300882327005457,1.80327645152201,1.26070243655392,14.3658251222366,346.381157019182,32.7871697010012,66.8853931655555,2.34585046649009,0.407015179877577,2455791.16855372,2.42159588166715,0.280301,3.16338,3.973,2012-01-27,10,66.6881880259492,3.67597848169969,-1.90452049792595,-1.12714038016127,0,0.161719102398396,0.85275220209418,-2.03575646317362,2.21306207857127,4
AMO,2010 FD,bK10F00D,2085-2104,3,1.3e-06,9.79,26,0.021,0,-6.57,-6.6,2085,2104,26,,,,2457800.5,J2000,0.632074154239076,2.8753950315721,1.05793214888792,0.346649031975313,22.4124698007416,162.648437918902,150.155939080264,4.69285791425627,0.202142576513176,2457057.67806872,4.87589651012147,0.060088,0.285221,2.962,2010-03-16,41,149.55857071925,-1.96572776819598,-0.877772922253858,-2.10582266052982,0,1.47339605677691,1.7073240863717,-0.345141861576099,2.28144129458615,5
AMO,2016 JP38,bK16J38P,2020-2078,29,2.1e-08,9.71,24.4,0.044,0,-6.65,-6.97,2020,2078,24.546,,,,2457512.5,J2000,0.323740155880423,1.84213077015025,1.24575906746969,1.90634856637638,241.106442075082,0.480870263135279,350.876863224689,2.43850247283082,0.394206143793986,2457535.64306086,2.50028138547392,0.232963,2.57872,3.95,2016-05-03,14,350.56554992521,-1.62496992928169,-0.0908850796511907,-1.67602206368345,0,-0.845475330999674,0.144556175570935,-1.44276991666455,1.67848445201525,3
AMO,2011 AZ36,bK11A36Z,2026-2116,176,4.1e-07,7.61,25.1,0.032,0,-6.66,-8.03,2026,2116,24.7,,,,2455574.5,J2000,0.466329627903719,2.00169682024821,1.0682462868858,1.27491257942844,243.599962084179,210.589913574914,5.98117628710076,2.93514735361061,0.348021941094903,2455557.31379539,2.83208087474802,0.0853821,2.28877,3.697,2011-01-13,9,5.74024405154831,5.41863223303141,0.780387808170595,-0.914855602393346,0,0.130112242447168,0.894053070648763,0.793540052927818,1.202483224154,2
AMO,2015 HW182,bK15HI2W,2017-2115,174,5.7e-08,10.76,25.2,0.031,0,-6.69,-7.17,2017,2115,25.4,,,,2457131.5,J2000,0.166787779157746,1.31105318501118,1.09238553592548,3.62603594030082,193.656246875887,289.905621199001,65.8182912175602,1.52972083409688,0.656558773361019,2457031.25262857,1.50120038503483,0.122503,3.52235,4.957,2015-04-18,9,65.8404139131137,3.02912686383626,-1.51813677559558,0.171461977096439,0,0.368271109583595,1.39817252851202,0.4935873269908,1.52778875470582,3
AMO,2017 DB120,bK17DC0B,2053-2103,8,1.3e-08,14.35,23,0.085,0,-6.84,-7.13,2053,2103,22.3,,,,2457810.5,J2000,0.549174339522196,2.41284269868897,1.0877714032655,4.28674053325008,194.379170772236,29.5641964159755,341.387550052425,3.73791399411243,0.262972635772614,2457881.27713578,3.74801842203765,0.0873951,1.24895,3.292,2017-02-25,8,341.739045175335,2.7559387053366,-3.17895291240618,1.29060260673261,0,1.52112524843857,-1.85098219477586,-2.45589893948961,3.43094691124779,7
AMO,2016 PR66,bK16P66R,2026-2113,23,1.2e-08,10.32,23.3,0.075,0,-6.9,-7.42,2026,2113,23,,,,2457606.5,J2000,0.446271685646813,2.17596546036436,1.20489368645832,5.55867975019699,193.396757371822,74.7945038111583,16.3561207893122,3.14703723427041,0.30706200245251,2457553.23349142,3.20986079519882,0.214726,1.99234,3.543,2016-08-06,7,16.1608491304544,3.42480281887528,-2.92767403018605,-0.852050209185819,0,0.163416807268105,2.97744950855532,-0.636674294365167,3.0491416474148,6
AMO,2017 FC1,bK17F01C,2064-2064,1,4.5e-07,8.28,26.1,0.02,0,-6.98,-6.98,2064,2064,26.145,,,,2457800.5,J2000,0.607790969279364,2.6394474343432,1.03521511986182,2.38157166210939,175.088167768173,2.76880474106698,352.774518361734,4.24367974882459,0.229844728685767,2457831.93636001,4.28822661717449,0.03956,0.727781,3.102,2017-03-14,88,353.381622317006,2.18575555675988,-1.47877068343782,2.09360826315646,0,1.75410972952315,0.744356419072182,-1.71434852697181,2.56319298800386,5
AMO,2012 CR,bK12C00R,2025-2025,1,1.2e-10,14.18,21,0.21,0,-7.16,-7.16,2025,2025,21.8,,,,2455959.5,J2000,0.384493140787138,1.78244725706162,1.09710851290658,2.1851752545067,156.51496998,33.8416079924307,341.016361272957,2.46778600121667,0.414170385380473,2456005.33533588,2.37976040334734,0.100933,2.48183,3.999,2012-02-01,12,341.355180937184,2.38237253491425,-1.52794213652265,1.44996844772617,0,0.816782117436494,0.913400109469453,-1.71335427878182,2.10642248183094,4
AMO,2008 UA92,bK08U92A,2078-2078,1,1.3e-06,8.38,27.3,0.012,0,-7.18,-7.18,2078,2078,27.4,,,,2454768.5,J2000,0.605214645289999,2.60202031974215,1.02723951489203,3.0518152218854,39.5472336875138,351.557868763101,1.00434934342812,4.17680112459226,0.234821602929625,2454764.22292612,4.19734075174908,0.0335881,1.27472,3.124,2008-10-28,17,1.60911961156531,2.25099114739226,-1.67447436346785,2.06984946034728,0,2.63884279184191,-0.274771911304949,0.221698667368068,2.66235632145868,5
